{
  "type": "FeatureCollection",
  "features": [
    {
      "type": "Feature",
      "properties": {
        "norad_id": 66850,
        "name": "STARLINK-36105",
        "group": "last-30-days",
        "lat": 42.969900145470525,
        "lon": -139.3851425792564,
        "alt_km": 287.0348561501696,
        "timestamp": "2025-12-11T15:53:38.295215+00:00",
        "meta_object_name": "STARLINK-36105",
        "meta_object_id": "2025-281C",
        "meta_epoch": "2025-12-10T16:00:01.999584",
        "meta_mean_motion": 15.95340432,
        "meta_eccentricity": 0.00015636,
        "meta_inclination": 43.0013,
        "meta_ra_of_asc_node": 135.3001,
        "meta_arg_of_pericenter": 273.869,
        "meta_mean_anomaly": 215.7585,
        "meta_ephemeris_type": 0,
        "meta_classification_type": "U",
        "meta_norad_cat_id": 66850,
        "meta_element_set_no": 999,
        "meta_rev_at_epoch": 246,
        "meta_bstar": -0.0023522064,
        "meta_mean_motion_dot": -0.00967539,
        "meta_mean_motion_ddot": 0.00029414388,
        "tle_line1": "1 66850U 25281C   25344.66668981 -.00967539  29414-3 -23522-2 0  9991",
        "tle_line2": "2 66850  43.0013 135.3001 0001563 273.8690 215.7585 15.95340432  2462"
      },
      "geometry": {
        "type": "Point",
        "coordinates": [
          -139.3851425792564,
          42.969900145470525
        ]
      }
    },
    {
      "type": "Feature",
      "properties": {
        "norad_id": 66851,
        "name": "STARLINK-36094",
        "group": "last-30-days",
        "lat": 42.89465795571951,
        "lon": -136.49244222718886,
        "alt_km": 286.9381647447872,
        "timestamp": "2025-12-11T15:53:38.295226+00:00",
        "meta_object_name": "STARLINK-36094",
        "meta_object_id": "2025-281D",
        "meta_epoch": "2025-12-10T16:00:01.999584",
        "meta_mean_motion": 15.95416525,
        "meta_eccentricity": 0.00016672,
        "meta_inclination": 43.0013,
        "meta_ra_of_asc_node": 135.2954,
        "meta_arg_of_pericenter": 281.4235,
        "meta_mean_anomaly": 210.094,
        "meta_ephemeris_type": 0,
        "meta_classification_type": "U",
        "meta_norad_cat_id": 66851,
        "meta_element_set_no": 999,
        "meta_rev_at_epoch": 246,
        "meta_bstar": -0.0023762503,
        "meta_mean_motion_dot": -0.00981359,
        "meta_mean_motion_ddot": 0.00030208182,
        "tle_line1": "1 66851U 25281D   25344.66668981 -.00981359  30208-3 -23763-2 0  9998",
        "tle_line2": "2 66851  43.0013 135.2954 0001667 281.4235 210.0940 15.95416525  2464"
      },
      "geometry": {
        "type": "Point",
        "coordinates": [
          -136.49244222718886,
          42.89465795571951
        ]
      }
    },
    {
      "type": "Feature",
      "properties": {
        "norad_id": 66852,
        "name": "STARLINK-35992",
        "group": "last-30-days",
        "lat": 42.75484184830547,
        "lon": -133.73744015345804,
        "alt_km": 286.8589747679616,
        "timestamp": "2025-12-11T15:53:38.295238+00:00",
        "meta_object_name": "STARLINK-35992",
        "meta_object_id": "2025-281E",
        "meta_epoch": "2025-12-10T16:00:01.999584",
        "meta_mean_motion": 15.95490858,
        "meta_eccentricity": 0.00016244,
        "meta_inclination": 43.0015,
        "meta_ra_of_asc_node": 135.2908,
        "meta_arg_of_pericenter": 275.4518,
        "meta_mean_anomaly": 217.8803,
        "meta_ephemeris_type": 0,
        "meta_classification_type": "U",
        "meta_norad_cat_id": 66852,
        "meta_element_set_no": 999,
        "meta_rev_at_epoch": 246,
        "meta_bstar": -0.0024039217,
        "meta_mean_motion_dot": -0.00996651,
        "meta_mean_motion_ddot": 0.00031095622,
        "tle_line1": "1 66852U 25281E   25344.66668981 -.00996651  31096-3 -24039-2 0  9993",
        "tle_line2": "2 66852  43.0015 135.2908 0001624 275.4518 217.8803 15.95490858  2460"
      },
      "geometry": {
        "type": "Point",
        "coordinates": [
          -133.73744015345804,
          42.75484184830547
        ]
      }
    },
    {
      "type": "Feature",
      "properties": {
        "norad_id": 66853,
        "name": "STARLINK-35986",
        "group": "last-30-days",
        "lat": 42.43643423757462,
        "lon": -129.78664316330287,
        "alt_km": 286.82415560703976,
        "timestamp": "2025-12-11T15:53:38.295421+00:00",
        "meta_object_name": "STARLINK-35986",
        "meta_object_id": "2025-281F",
        "meta_epoch": "2025-12-10T16:00:01.999584",
        "meta_mean_motion": 15.95608593,
        "meta_eccentricity": 0.00016358,
        "meta_inclination": 43.0015,
        "meta_ra_of_asc_node": 135.2841,
        "meta_arg_of_pericenter": 275.5982,
        "meta_mean_anomaly": 220.3793,
        "meta_ephemeris_type": 0,
        "meta_classification_type": "U",
        "meta_norad_cat_id": 66853,
        "meta_element_set_no": 999,
        "meta_rev_at_epoch": 246,
        "meta_bstar": -0.0024896148,
        "meta_mean_motion_dot": -0.01038402,
        "meta_mean_motion_ddot": 0.00033553081,
        "tle_line1": "1 66853U 25281F   25344.66668981 -.01038402  33553-3 -24896-2 0  9997",
        "tle_line2": "2 66853  43.0015 135.2841 0001635 275.5982 220.3793 15.95608593  2469"
      },
      "geometry": {
        "type": "Point",
        "coordinates": [
          -129.78664316330287,
          42.43643423757462
        ]
      }
    },
    {
      "type": "Feature",
      "properties": {
        "norad_id": 66854,
        "name": "STARLINK-36087",
        "group": "last-30-days",
        "lat": 42.01214437996926,
        "lon": -126.10123347518727,
        "alt_km": 286.8281208664939,
        "timestamp": "2025-12-11T15:53:38.295433+00:00",
        "meta_object_name": "STARLINK-36087",
        "meta_object_id": "2025-281G",
        "meta_epoch": "2025-12-10T16:00:01.999584",
        "meta_mean_motion": 15.95721326,
        "meta_eccentricity": 0.00016261,
        "meta_inclination": 43.0014,
        "meta_ra_of_asc_node": 135.2774,
        "meta_arg_of_pericenter": 269.4535,
        "meta_mean_anomaly": 229.0445,
        "meta_ephemeris_type": 0,
        "meta_classification_type": "U",
        "meta_norad_cat_id": 66854,
        "meta_element_set_no": 999,
        "meta_rev_at_epoch": 246,
        "meta_bstar": -0.0025875366,
        "meta_mean_motion_dot": -0.01085412,
        "meta_mean_motion_ddot": 0.0003641912,
        "tle_line1": "1 66854U 25281G   25344.66668981 -.01085412  36419-3 -25875-2 0  9993",
        "tle_line2": "2 66854  43.0014 135.2774 0001626 269.4535 229.0445 15.95721326  2460"
      },
      "geometry": {
        "type": "Point",
        "coordinates": [
          -126.10123347518727,
          42.01214437996926
        ]
      }
    },
    {
      "type": "Feature",
      "properties": {
        "norad_id": 66855,
        "name": "STARLINK-36090",
        "group": "last-30-days",
        "lat": 41.58651536680513,
        "lon": -123.17817296748748,
        "alt_km": 286.8224232552975,
        "timestamp": "2025-12-11T15:53:38.295444+00:00",
        "meta_object_name": "STARLINK-36090",
        "meta_object_id": "2025-281H",
        "meta_epoch": "2025-12-10T16:00:01.999584",
        "meta_mean_motion": 15.95808262,
        "meta_eccentricity": 0.00015962,
        "meta_inclination": 43.0015,
        "meta_ra_of_asc_node": 135.2723,
        "meta_arg_of_pericenter": 269.568,
        "meta_mean_anomaly": 230.9611,
        "meta_ephemeris_type": 0,
        "meta_classification_type": "U",
        "meta_norad_cat_id": 66855,
        "meta_element_set_no": 999,
        "meta_rev_at_epoch": 246,
        "meta_bstar": -0.0026621288,
        "meta_mean_motion_dot": -0.01121625,
        "meta_mean_motion_ddot": 0.00038702579,
        "tle_line1": "1 66855U 25281H   25344.66668981 -.01121625  38703-3 -26621-2 0  9999",
        "tle_line2": "2 66855  43.0015 135.2723 0001596 269.5680 230.9611 15.95808262  2465"
      },
      "geometry": {
        "type": "Point",
        "coordinates": [
          -123.17817296748748,
          41.58651536680513
        ]
      }
    },
    {
      "type": "Feature",
      "properties": {
        "norad_id": 66856,
        "name": "STARLINK-36072",
        "group": "last-30-days",
        "lat": 40.99825650296174,
        "lon": -119.82611716599308,
        "alt_km": 286.8932102095041,
        "timestamp": "2025-12-11T15:53:38.295457+00:00",
        "meta_object_name": "STARLINK-36072",
        "meta_object_id": "2025-281J",
        "meta_epoch": "2025-12-10T16:00:01.999584",
        "meta_mean_motion": 15.95902482,
        "meta_eccentricity": 0.00016438,
        "meta_inclination": 43.0014,
        "meta_ra_of_asc_node": 135.2663,
        "meta_arg_of_pericenter": 276.2049,
        "meta_mean_anomaly": 226.6934,
        "meta_ephemeris_type": 0,
        "meta_classification_type": "U",
        "meta_norad_cat_id": 66856,
        "meta_element_set_no": 999,
        "meta_rev_at_epoch": 246,
        "meta_bstar": -0.0027360976,
        "meta_mean_motion_dot": -0.0115835,
        "meta_mean_motion_ddot": 0.00041087948,
        "tle_line1": "1 66856U 25281J   25344.66668981 -.01158350  41088-3 -27361-2 0  9997",
        "tle_line2": "2 66856  43.0014 135.2663 0001643 276.2049 226.6934 15.95902482  2464"
      },
      "geometry": {
        "type": "Point",
        "coordinates": [
          -119.82611716599308,
          40.99825650296174
        ]
      }
    }
  ]
}